NORAD_CAT_ID,OBJECT_NAME,OBJECT_TYPE,EPOCH,MEAN_MOTION,ECCENTRICITY,INCLINATION,RA_OF_ASC_NODE,ARG_OF_PERICENTER,MEAN_ANOMALY,BSTAR,MEAN_MOTION_DOT,MEAN_MOTION_DDOT,TLE_LINE0,TLE_LINE1,TLE_LINE2,SEMIMAJOR_AXIS,PERIOD,APOGEE,PERIGEE,DECAYED
53132.0,STARLINK-4063,PAYLOAD,2023-02-07 02:56:14,15.08849005,0.0001189,53.2138,191.4827,82.3621,277.7506,0.00013301,1.83e-05,0.0,0 STARLINK-4063,1 53132U 22083A   23038.12239203  .00001830  00000-0  13301-3 0  9990,2 53132  53.2138 191.4827 0001189  82.3621 277.7506 15.08849005 31773,6917.853,95.437,540.54,538.895,0.0
53132.0,STARLINK-4063,PAYLOAD,2023-02-07 10:53:09,15.08862475,0.0001106,53.2137,189.9955,84.0323,276.0795,8.0167e-05,9.89e-06,0.0,0 STARLINK-4063,1 53132U 22083A   23038.45358255  .00000989  00000-0  80167-4 0  9994,2 53132  53.2137 189.9955 0001106  84.0323 276.0795 15.08862475 31827,6917.812,95.436,540.442,538.912,0.0
53132.0,STARLINK-4063,PAYLOAD,2023-02-07 14:03:56,15.08851303,0.0001387,53.2129,189.398,95.2442,264.8708,-8.0368e-06,-4.16e-06,0.0,0 STARLINK-4063,1 53132U 22083A   23038.58607011 -.00000416  00000-0 -80368-5 0  9996,2 53132  53.2129 189.3980 0001387  95.2442 264.8708 15.08851303 31217,6917.846,95.437,540.67,538.751,0.0
53132.0,STARLINK-4063,PAYLOAD,2023-02-07 17:14:43,15.08836448,0.0001399,53.214,188.8073,68.4017,291.7125,-0.000139,-2.499e-05,0.0,0 STARLINK-4063,1 53132U 22083A   23038.71856383 -.00002499  00000-0 -13900-3 0  9998,2 53132  53.2140 188.8073 0001399  68.4017 291.7125 15.08836448 31866,6917.891,95.438,540.724,538.788,0.0
53132.0,STARLINK-4063,PAYLOAD,2023-02-08 13:54:45,15.088249,0.0001225,53.2137,184.9415,86.2573,273.8559,0.0001039,1.365e-05,0.0,0 STARLINK-4063,1 53132U 22083A   23039.57969119  .00001365  00000-0  10390-3 0  9994,2 53132  53.2137 184.9415 0001225  86.2573 273.8559 15.08824900 31369,6917.927,95.439,540.639,538.944,0.0
53132.0,STARLINK-4063,PAYLOAD,2023-02-08 18:40:54,15.08837914,0.0001323,53.2134,184.05,84.4469,275.6674,0.00019396,2.8e-05,0.0,0 STARLINK-4063,1 53132U 22083A   23039.77840330  .00002800  00000-0  19396-3 0  9999,2 53132  53.2134 184.0500 0001323  84.4469 275.6674 15.08837914 32026,6917.887,95.438,540.667,538.837,0.0
53132.0,STARLINK-4063,PAYLOAD,2023-02-09 02:37:50,15.08833054,0.0001242,53.2127,182.5617,92.8866,267.2268,3.3364e-05,2.43e-06,0.0,0 STARLINK-4063,1 53132U 22083A   23040.10960678  .00000243  00000-0  33364-4 0  9997,2 53132  53.2127 182.5617 0001242  92.8866 267.2268 15.08833054 31446,6917.902,95.438,540.626,538.907,0.0
53132.0,STARLINK-4063,PAYLOAD,2023-02-09 16:56:17,15.08843145,0.0001043,53.2135,179.8843,93.0779,267.0332,-1.3962e-05,-5.1e-06,0.0,0 STARLINK-4063,1 53132U 22083A   23040.70576277 -.00000510  00000-0 -13962-4 0  9992,2 53132  53.2135 179.8843 0001043  93.0779 267.0332 15.08843145 31532,6917.871,95.437,540.457,539.014,0.0
53132.0,STARLINK-4063,PAYLOAD,2023-02-10 02:28:37,15.08834555,0.0001205,53.2138,178.1011,77.9788,282.1339,0.00021604,3.152e-05,0.0,0 STARLINK-4063,1 53132U 22083A   23041.10321087  .00003152  00000-0  21604-3 0  9998,2 53132  53.2138 178.1011 0001205  77.9788 282.1339 15.08834555 31591,6917.897,95.438,540.596,538.928,0.0
53132.0,STARLINK-4063,PAYLOAD,2023-02-10 12:00:56,15.08839232,0.0001111,53.2135,176.3159,83.0728,277.0391,0.00026504,3.933e-05,0.0,0 STARLINK-4063,1 53132U 22083A   23041.50065048  .00003933  00000-0  26504-3 0  9995,2 53132  53.2135 176.3159 0001111  83.0728 277.0391 15.08839232 32284,6917.883,95.438,540.516,538.979,0.0
53132.0,STARLINK-4063,PAYLOAD,2023-02-10 15:11:42,15.08846893,0.0001089,53.2138,175.7212,86.8796,273.232,0.00020234,2.934e-05,0.0,0 STARLINK-4063,1 53132U 22083A   23041.63312648  .00002934  00000-0  20234-3 0  9994,2 53132  53.2138 175.7212 0001089  86.8796 273.2320 15.08846893 31673,6917.859,95.437,540.478,538.971,0.0
53132.0,STARLINK-4063,PAYLOAD,2023-02-11 10:16:20,15.08826743,8.8e-05,53.2139,172.1549,75.4244,284.6845,-1.0303e-05,-4.52e-06,0.0,0 STARLINK-4063,1 53132U 22083A   23042.42801858 -.00000452  00000-0 -10303-4 0  9990,2 53132  53.2139 172.1549 0000880  75.4244 284.6845 15.08826743 32422,6917.921,95.438,540.395,539.177,0.0
53132.0,STARLINK-4063,PAYLOAD,2023-02-11 11:51:43,15.08827492,9.46e-05,53.2139,171.857,78.4103,281.6995,-7.2642e-06,-4.03e-06,0.0,0 STARLINK-4063,1 53132U 22083A   23042.49425889 -.00000403  00000-0 -72642-5 0  9994,2 53132  53.2139 171.8570 0000946  78.4103 281.6995 15.08827492 31808,6917.919,95.438,540.438,539.129,0.0
53132.0,STARLINK-4063,PAYLOAD,2023-02-11 13:27:06,15.08834323,9.81e-05,53.2134,171.5578,87.2653,272.8451,8.9275e-05,1.133e-05,0.0,0 STARLINK-4063,1 53132U 22083A   23042.56049565  .00001133  00000-0  89275-4 0  9993,2 53132  53.2134 171.5578 0000981  87.2653 272.8451 15.08834323 32446,6917.898,95.438,540.441,539.084,0.0
53132.0,STARLINK-4063,PAYLOAD,2023-02-12 14:53:16,15.08847235,8.62e-05,53.2135,166.8015,56.7766,303.3308,0.00038343,5.821e-05,0.0,0 STARLINK-4063,1 53132U 22083A   23043.62033418  .00005821  00000-0  38343-3 0  9998,2 53132  53.2135 166.8015 0000862  56.7766 303.3308 15.08847235 31978,6917.858,95.437,540.32,539.127,0.0
53132.0,STARLINK-4063,PAYLOAD,2023-02-13 09:57:54,15.08843777,0.0001041,53.2134,163.2346,55.0438,305.0652,0.00029687,4.441e-05,0.0,0 STARLINK-4063,1 53132U 22083A   23044.41521618  .00004441  00000-0  29687-3 0  9998,2 53132  53.2134 163.2346 0001041  55.0438 305.0652 15.08843777 32725,6917.869,95.437,540.454,539.014,0.0
53132.0,STARLINK-4063,PAYLOAD,2023-02-13 14:44:03,15.08848567,9.73e-05,53.2134,162.3422,58.4725,301.6362,0.0003369,5.079e-05,0.0,0 STARLINK-4063,1 53132U 22083A   23044.61393404  .00005079  00000-0  33690-3 0  9997,2 53132  53.2134 162.3422 0000973  58.4725 301.6362 15.08848567 32125,6917.854,95.437,540.392,539.046,0.0
53132.0,STARLINK-4063,PAYLOAD,2023-02-14 09:48:41,15.08831891,0.0001086,53.2132,158.7723,86.9765,273.1351,-8.0401e-05,-1.567e-05,0.0,0 STARLINK-4063,1 53132U 22083A   23045.40881904 -.00001567  00000-0 -80401-4 0  9995,2 53132  53.2132 158.7723 0001086  86.9765 273.1351 15.08831891 32877,6917.905,95.438,540.521,539.019,0.0
53132.0,STARLINK-4063,PAYLOAD,2023-02-14 14:34:51,15.08838629,7.37e-05,53.213,157.8835,89.1471,270.9605,3.9512e-05,3.41e-06,0.0,0 STARLINK-4063,1 53132U 22083A   23045.60753615  .00000341  00000-0  39512-4 0  9998,2 53132  53.2130 157.8835 0000737  89.1471 270.9605 15.08838629 32277,6917.885,95.438,540.259,539.24,0.0
53132.0,STARLINK-4063,PAYLOAD,2023-02-14 16:10:14,15.08844877,0.0001473,53.2128,157.5852,97.4951,262.6208,0.00016877,2.399e-05,0.0,0 STARLINK-4063,1 53132U 22083A   23045.67377466  .00002399  00000-0  16877-3 0  9994,2 53132  53.2128 157.5852 0001473  97.4951 262.6208 15.08844877 32913,6917.865,95.437,540.749,538.711,0.0
53132.0,STARLINK-4063,PAYLOAD,2023-02-15 03:17:56,15.08837817,0.0001228,53.2135,155.5027,99.0489,261.0642,3.9346e-05,3.38e-06,0.0,0 STARLINK-4063,1 53132U 22083A   23046.13745744  .00000338  00000-0  39346-4 0  9992,2 53132  53.2135 155.5027 0001228  99.0489 261.0642 15.08837817 32983,6917.887,95.438,540.602,538.903,0.0
53132.0,STARLINK-4063,PAYLOAD,2023-02-15 12:50:14,15.08850226,9.66e-05,53.2132,153.7175,88.6043,271.5059,0.00037489,5.685e-05,0.0,0 STARLINK-4063,1 53132U 22083A   23046.53489335  .00005685  00000-0  37489-3 0  9992,2 53132  53.2132 153.7175 0000966  88.6043 271.5059 15.08850226 32417,6917.849,95.437,540.382,539.046,0.0
53132.0,STARLINK-4063,PAYLOAD,2023-02-15 16:01:00,15.0886809,0.0001225,53.2127,153.1212,92.962,267.1512,0.00077753,0.00012118,0.0,0 STARLINK-4063,1 53132U 22083A   23046.66736696  .00012118  00000-0  77753-3 0  9998,2 53132  53.2127 153.1212 0001225  92.9620 267.1512 15.08868090 33060,6917.795,95.436,540.507,538.812,0.0
53132.0,STARLINK-4063,PAYLOAD,2023-02-16 11:05:38,15.08846439,0.0001286,53.2129,149.5533,99.45,260.6637,0.00018947,2.729e-05,0.0,0 STARLINK-4063,1 53132U 22083A   23047.46225132  .00002729  00000-0  18947-3 0  9992,2 53132  53.2129 149.5533 0001286  99.4500 260.6637 15.08846439 33185,6917.861,95.437,540.615,538.836,0.0
53132.0,STARLINK-4063,PAYLOAD,2023-02-16 12:41:01,15.08851552,0.0001273,53.2126,149.2558,96.0674,264.0463,0.00038658,5.872e-05,0.0,0 STARLINK-4063,1 53132U 22083A   23047.52849058  .00005872  00000-0  38658-3 0  9991,2 53132  53.2126 149.2558 0001273  96.0674 264.0463 15.08851552 32565,6917.845,95.437,540.591,538.829,0.0
53132.0,STARLINK-4063,PAYLOAD,2023-02-16 19:02:33,15.08867288,0.0001835,53.2118,148.0648,60.8439,299.2737,0.0022807,0.00036224,0.0,0 STARLINK-4063,1 53132U 22083A   23047.79344880  .00036224  00000-0  22807-2 0  9996,2 53132  53.2118 148.0648 0001835  60.8439 299.2737 15.08867288 33237,6917.797,95.436,540.931,538.393,0.0
53132.0,STARLINK-4063,PAYLOAD,2023-02-17 12:31:49,15.08845643,0.0001148,53.2116,144.7944,67.2415,292.8699,0.0021767,0.0003453,0.0,0 STARLINK-4063,1 53132U 22083A   23048.52209777  .00034530  00000-0  21767-2 0  9995,2 53132  53.2116 144.7944 0001148  67.2415 292.8699 15.08845643 33348,6917.863,95.437,540.522,538.934,0.0
53132.0,STARLINK-4063,PAYLOAD,2023-02-17 17:17:58,15.08856926,0.000141,53.2126,143.9038,58.7533,301.3597,0.0026266,0.00041782,0.0,0 STARLINK-4063,1 53132U 22083A   23048.72081787  .00041782  00000-0  26266-2 0  9992,2 53132  53.2126 143.9038 0001410  58.7533 301.3597 15.08856926 32744,6917.829,95.436,540.669,538.718,0.0
53132.0,STARLINK-4063,PAYLOAD,2023-02-18 12:22:37,15.08837033,0.0001226,53.2132,140.3356,63.1421,296.9697,0.0020818,0.00032997,0.0,0 STARLINK-4063,1 53132U 22083A   23049.51570988  .00032997  00000-0  20818-2 0  9991,2 53132  53.2132 140.3356 0001226  63.1421 296.9697 15.08837033 33497,6917.889,95.438,540.603,538.906,0.0
53132.0,STARLINK-4063,PAYLOAD,2023-02-18 23:30:19,15.08842988,0.0001558,53.2138,138.2545,63.0175,297.0976,0.0013092,0.00020611,0.0,0 STARLINK-4063,1 53132U 22083A   23049.97939065  .00020611  00000-0  13092-2 0  9992,2 53132  53.2138 138.2545 0001558  63.0175 297.0976 15.08842988 33567,6917.871,95.437,540.814,538.658,0.0
